     2.10           GLONASS NAV DATA                        RINEX VERSION / TYPE
JPS2RIN v.2.1.237   JAVAD GNSS          20251027 230342 UTC PGM / RUN BY / DATE
    16                                                      LEAP SECONDS
                                                            END OF HEADER
 2 13 10 24  3 45  0.0 3.926642239094D-05 1.818989403546D-12 1.260000000000D+04
    6.549910644531D+03 1.841248512268D+00 2.793967723846D-09 0.000000000000D+00
   -1.664193359375D+04-1.675121307373D+00 0.000000000000D+00-4.000000000000D+00
    1.821530908203D+04-2.199160575867D+00 0.000000000000D+00 0.000000000000D+00
 3 13 10 24  3 45  0.0 1.318752765656D-06 9.094947017729D-13 1.260000000000D+04
   -9.436189941406D+03 2.421063423157D+00 9.313225746155D-10 0.000000000000D+00
   -6.304281738281D+03-1.971765518188D+00 0.000000000000D+00 5.000000000000D+00
    2.288535107422D+04 4.543609619141D-01-1.862645149231D-09 0.000000000000D+00
 9 13 10 24  3 45  0.0-2.793967723846D-07 9.094947017729D-13 1.260000000000D+04
    2.561861328125D+03 1.356334686279D-01-9.313225746155D-10 0.000000000000D+00
    2.524955664063D+04-4.364595413208D-01 0.000000000000D+00-2.000000000000D+00
   -3.017283203125D+03-3.548948287964D+00 0.000000000000D+00 0.000000000000D+00
10 13 10 24  3 45  0.0-3.068055957556D-05 0.000000000000D+00 1.260000000000D+04
    9.309108886719D+03 4.932861328125D-01 9.313225746155D-10 0.000000000000D+00
    1.949250097656D+04 1.798987388611D+00-9.313225746155D-10-7.000000000000D+00
    1.348185595703D+04-2.946270942688D+00-9.313225746155D-10 0.000000000000D+00
11 13 10 24  3 45  0.0-3.145355731249D-05 9.094947017729D-13 1.260000000000D+04
    1.098026953125D+04 5.608816146851D-01 2.793967723846D-09 0.000000000000D+00
    2.416928710938D+03 3.087845802307D+00-9.313225746155D-10 0.000000000000D+00
    2.290601074219D+04-5.881071090698D-01-9.313225746155D-10 0.000000000000D+00
12 13 10 24  3 45  0.0-6.141141057014D-05 1.818989403546D-12 1.260000000000D+04
    6.007105957031D+03 2.655038833618D-01 2.793967723846D-09 0.000000000000D+00
   -1.668830371094D+04 2.506802558899D+00 0.000000000000D+00-1.000000000000D+00
    1.838551806641D+04 2.170103073120D+00-9.313225746155D-10 0.000000000000D+00
19 13 10 24  3 45  0.0-7.397774606943D-05-9.094947017729D-13 1.260000000000D+04
   -1.021983886719D+04-2.854506492615D+00 0.000000000000D+00 0.000000000000D+00
    7.127168457031D+03-1.074884414673D+00 0.000000000000D+00 3.000000000000D+00
    2.224951464844D+04-9.672975540161D-01-2.793967723846D-09 0.000000000000D+00
20 13 10 24  3 45  0.0-7.359124720097D-05-1.818989403546D-12 1.260000000000D+04
    7.686483398438D+03-2.563322067261D+00 1.862645149231D-09 0.000000000000D+00
    1.326948974609D+04-1.110030174255D+00-9.313225746155D-10 2.000000000000D+00
    2.036625732422D+04 1.694962501526D+00-9.313225746155D-10 0.000000000000D+00
21 13 10 24  3 45  0.0-2.087745815516D-05-1.818989403546D-12 1.260000000000D+04
    2.050492138672D+04-1.073455810547D+00 2.793967723846D-09 0.000000000000D+00
    1.237936914063D+04-6.024856567383D-01-9.313225746155D-10 4.000000000000D+00
    8.904491210938D+03 3.296827316284D+00 0.000000000000D+00 0.000000000000D+00
22 13 10 24  3 45  0.0 1.016315072775D-04 0.000000000000D+00 1.401000000000D+04
    2.362443505859D+04 1.087409973145D+00 1.862645149231D-09 0.000000000000D+00
    4.974113769531D+03 2.417898178101D-01-9.313225746155D-10-3.000000000000D+00
   -8.024874023438D+03 3.365238189697D+00 2.793967723846D-09 0.000000000000D+00
26 13 10 24  3 45  0.0-3.746468573809D-04 5.456968210638D-12 1.260000000000D+04
    1.228296289063D+04-2.233510017395D+00 1.862645149231D-09 1.000000000000D+00
    1.357495458984D+04-9.724950790405D-01-9.313225746155D-10-5.000000000000D+00
    1.777338671875D+04 2.284718513489D+00-9.313225746155D-10 0.000000000000D+00
 2 13 10 24  4 15  0.0 3.927014768124D-05 1.818989403546D-12 1.440000000000D+04
    9.251546875000D+03 1.154740333557D+00 2.793967723846D-09 0.000000000000D+00
   -1.950630175781D+04-1.461158752441D+00 0.000000000000D+00-4.000000000000D+00
    1.360506054688D+04-2.890271186829D+00 0.000000000000D+00 0.000000000000D+00
 3 13 10 24  4 15  0.0 1.321546733379D-06 9.094947017729D-13 1.440000000000D+04
   -5.332275390625D+03 2.101681709290D+00 1.862645149231D-09 0.000000000000D+00
   -1.017751464844D+04-2.296141624451D+00 0.000000000000D+00 5.000000000000D+00
    2.281184228516D+04-5.355587005615D-01-1.862645149231D-09 0.000000000000D+00
 4 13 10 24  4 15  0.0 4.927255213261D-05 9.094947017729D-13 1.446000000000D+04
   -1.679500048828D+04 1.791366577148D+00 0.000000000000D+00 0.000000000000D+00
    5.214461914063D+03-1.787353515625D+00 0.000000000000D+00 6.000000000000D+00
    1.849537353516D+04 2.132057189941D+00-2.793967723846D-09 0.000000000000D+00
10 13 10 24  4 15  0.0-3.067962825298D-05 0.000000000000D+00 1.440000000000D+04
    1.026383837891D+04 5.249347686768D-01 0.000000000000D+00 0.000000000000D+00
    2.198285400391D+04 9.525222778320D-01-9.313225746155D-10-7.000000000000D+00
    7.723417480469D+03-3.410246849060D+00 0.000000000000D+00 0.000000000000D+00
11 13 10 24  4 15  0.0-3.145169466734D-05 9.094947017729D-13 1.440000000000D+04
    1.235168115234D+04 9.390096664429D-01 1.862645149231D-09 0.000000000000D+00
    7.682253417969D+03 2.716430664063D+00-9.313225746155D-10 0.000000000000D+00
    2.097695166016D+04-1.541218757629D+00-9.313225746155D-10 0.000000000000D+00
12 13 10 24  4 15  0.0-6.140768527985D-05 9.094947017729D-13 1.440000000000D+04
    6.922208007813D+03 7.612085342407D-01 2.793967723846D-09 0.000000000000D+00
   -1.182080615234D+04 2.852814674377D+00-9.313225746155D-10-1.000000000000D+00
    2.153318701172D+04 1.304255485535D+00-9.313225746155D-10 0.000000000000D+00
19 13 10 24  4 15  0.0-7.397960871458D-05-9.094947017729D-13 1.440000000000D+04
   -1.521008203125D+04-2.639512062073D+00 0.000000000000D+00 0.000000000000D+00
    5.656999511719D+03-5.598077774048D-01 0.000000000000D+00 3.000000000000D+00
    1.967012255859D+04-1.880089759827D+00-2.793967723846D-09 0.000000000000D+00
20 13 10 24  4 15  0.0-7.359683513641D-05-1.818989403546D-12 1.440000000000D+04
    2.647650878906D+03-2.993004798889D+00 9.313225746155D-10 0.000000000000D+00
    1.153229687500D+04-7.914686203003D-01-9.313225746155D-10 2.000000000000D+00
    2.258941992188D+04 7.592945098877D-01-1.862645149231D-09 0.000000000000D+00
21 13 10 24  4 15  0.0-2.088211476803D-05-1.818989403546D-12 1.440000000000D+04
    1.783100195313D+04-1.883001327515D+00 1.862645149231D-09 0.000000000000D+00
    1.125256884766D+04-6.077747344971D-01-1.862645149231D-09 4.000000000000D+00
    1.441991210938D+04 2.791725158691D+00 0.000000000000D+00 0.000000000000D+00
22 13 10 24  4 15  0.0 1.016324386001D-04 0.000000000000D+00 1.440000000000D+04
    2.486727734375D+04 2.708177566528D-01 1.862645149231D-09 0.000000000000D+00
    5.059173828125D+03-1.119441986084D-01-9.313225746155D-10-3.000000000000D+00
   -1.733559570313D+03 3.579360961914D+00 1.862645149231D-09 0.000000000000D+00
26 13 10 24  4 15  0.0-3.746356815100D-04 5.456968210638D-12 1.440000000000D+04
    7.719303710938D+03-2.801218032837D+00 9.313225746155D-10 1.000000000000D+00
    1.200722949219D+04-7.357168197632D-01-9.313225746155D-10-5.000000000000D+00
    2.114629638672D+04 1.438620567322D+00-1.862645149231D-09 0.000000000000D+00
 2 13 10 24  4 45  0.0 3.927014768124D-05 1.818989403546D-12 1.620000000000D+04
    1.072002197266D+04 4.897098541260D-01 2.793967723846D-09 0.000000000000D+00
   -2.174044628906D+04-9.792947769165D-01-9.313225746155D-10-4.000000000000D+00
    7.944181640625D+03-3.358871459961D+00 9.313225746155D-10 0.000000000000D+00
 3 13 10 24  4 45  0.0 1.323409378529D-06 9.094947017729D-13 1.620000000000D+04
   -1.978488769531D+03 1.602599143982D+00 1.862645149231D-09 0.000000000000D+00
   -1.442158496094D+04-2.373792648315D+00 0.000000000000D+00 5.000000000000D+00
    2.098186572266D+04-1.484701156616D+00-9.313225746155D-10 0.000000000000D+00
 4 13 10 24  4 45  0.0 4.927441477776D-05 9.094947017729D-13 1.620000000000D+04
   -1.356668798828D+04 1.751808166504D+00 0.000000000000D+00 0.000000000000D+00
    1.449558105469D+03-2.373017311096D+00 0.000000000000D+00 6.000000000000D+00
    2.156979833984D+04 1.261866569519D+00-2.793967723846D-09 0.000000000000D+00
 5 13 10 24  4 45  0.0-1.671034842730D-04 0.000000000000D+00 1.749000000000D+04
   -1.713576708984D+04 8.609790802002D-01-1.862645149231D-09 0.000000000000D+00
    1.630086230469D+04-9.924764633179D-01 9.313225746155D-10 1.000000000000D+00
    9.541158203125D+03 3.240303039551D+00-1.862645149231D-09 0.000000000000D+00
10 13 10 24  4 45  0.0-3.067869693041D-05 0.000000000000D+00 1.620000000000D+04
    1.104196875000D+04 2.966785430908D-01-9.313225746155D-10 0.000000000000D+00
    2.290211376953D+04 7.370185852051D-02 0.000000000000D+00-7.000000000000D+00
    1.364446289063D+03-3.609129905701D+00 0.000000000000D+00 0.000000000000D+00
11 13 10 24  4 45  0.0-3.144890069962D-05 9.094947017729D-13 1.620000000000D+04
    1.424855273438D+04 1.131291389465D+00 9.313225746155D-10 0.000000000000D+00
    1.205187500000D+04 2.105857849121D+00-1.862645149231D-09 0.000000000000D+00
    1.742969970703D+04-2.374522209167D+00-9.313225746155D-10 0.000000000000D+00
12 13 10 24  4 45  0.0-6.140582263470D-05 9.094947017729D-13 1.620000000000D+04
    8.750233398438D+03 1.261395454407D+00 2.793967723846D-09 0.000000000000D+00
   -6.600649902344D+03 2.896269798279D+00-9.313225746155D-10-1.000000000000D+00
    2.301864794922D+04 3.350524902344D-01-9.313225746155D-10 0.000000000000D+00
19 13 10 24  4 45  0.0-7.398240268230D-05-9.094947017729D-13 1.620000000000D+04
   -1.954824755859D+04-2.136313438416D+00-9.313225746155D-10 0.000000000000D+00
    5.075064453125D+03-1.056022644043D-01 9.313225746155D-10 3.000000000000D+00
    1.556865185547D+04-2.647494316101D+00-2.793967723846D-09 0.000000000000D+00
